{
  "type": "FeatureCollection",
  "name": "Cadastral_Parcels_5x6_Continuous",
  "features": [
    {"type": "Feature", "id": "KH-80//1", "properties": {"khasra_no": "KH-80//1"}, "geometry": {"type": "Polygon", "coordinates": [[[76.8400, 28.7610], [76.8430, 28.7610], [76.8430, 28.7622], [76.8400, 28.7622], [76.8400, 28.7610]]]}},
    {"type": "Feature", "id": "KH-80//2", "properties": {"khasra_no": "KH-80//2"}, "geometry": {"type": "Polygon", "coordinates": [[[76.8430, 28.7610], [76.8460, 28.7610], [76.8460, 28.7622], [76.8430, 28.7622], [76.8430, 28.7610]]]}},
    {"type": "Feature", "id": "KH-81//5", "properties": {"khasra_no": "KH-81//5"}, "geometry": {"type": "Polygon", "coordinates": [[[76.8460, 28.7610], [76.8490, 28.7610], [76.8490, 28.7622], [76.8460, 28.7622], [76.8460, 28.7610]]]}},
    {"type": "Feature", "id": "KH-81//6", "properties": {"khasra_no": "KH-81//6"}, "geometry": {"type": "Polygon", "coordinates": [[[76.8490, 28.7610], [76.8520, 28.7610], [76.8520, 28.7622], [76.8490, 28.7622], [76.8490, 28.7610]]]}},
    {"type": "Feature", "id": "KH-82//3", "properties": {"khasra_no": "KH-82//3"}, "geometry": {"type": "Polygon", "coordinates": [[[76.8520, 28.7610], [76.8550, 28.7610], [76.8550, 28.7622], [76.8520, 28.7622], [76.8520, 28.7610]]]}},
    {"type": "Feature", "id": "KH-82//4", "properties": {"khasra_no": "KH-82//4"}, "geometry": {"type": "Polygon", "coordinates": [[[76.8550, 28.7610], [76.8580, 28.7610], [76.8580, 28.7622], [76.8550, 28.7622], [76.8550, 28.7610]]]}},

    {"type": "Feature", "id": "KH-84//1", "properties": {"khasra_no": "KH-84//1"}, "geometry": {"type": "Polygon", "coordinates": [[[76.8400, 28.7598], [76.8430, 28.7598], [76.8430, 28.7610], [76.8400, 28.7610], [76.8400, 28.7598]]]}},
    {"type": "Feature", "id": "KH-84//2", "properties": {"khasra_no": "KH-84//2"}, "geometry": {"type": "Polygon", "coordinates": [[[76.8430, 28.7598], [76.8460, 28.7598], [76.8460, 28.7610], [76.8430, 28.7610], [76.8430, 28.7598]]]}},
    {"type": "Feature", "id": "KH-88//10", "properties": {"khasra_no": "KH-88//10"}, "geometry": {"type": "Polygon", "coordinates": [[[76.8460, 28.7598], [76.8490, 28.7598], [76.8490, 28.7610], [76.8460, 28.7610], [76.8460, 28.7598]]]}},
    {"type": "Feature", "id": "KH-88//11", "properties": {"khasra_no": "KH-88//11"}, "geometry": {"type": "Polygon", "coordinates": [[[76.8490, 28.7598], [76.8520, 28.7598], [76.8520, 28.7610], [76.8490, 28.7610], [76.8490, 28.7598]]]}},
    {"type": "Feature", "id": "KH-90//12", "properties": {"khasra_no": "KH-90//12"}, "geometry": {"type": "Polygon", "coordinates": [[[76.8520, 28.7598], [76.8550, 28.7598], [76.8550, 28.7610], [76.8520, 28.7610], [76.8520, 28.7598]]]}},
    {"type": "Feature", "id": "KH-90//13", "properties": {"khasra_no": "KH-90//13"}, "geometry": {"type": "Polygon", "coordinates": [[[76.8550, 28.7598], [76.8580, 28.7598], [76.8580, 28.7610], [76.8550, 28.7610], [76.8550, 28.7598]]]}},

    {"type": "Feature", "id": "KH-92//4", "properties": {"khasra_no": "KH-92//4"}, "geometry": {"type": "Polygon", "coordinates": [[[76.8400, 28.7586], [76.8430, 28.7586], [76.8430, 28.7598], [76.8400, 28.7598], [76.8400, 28.7586]]]}},
    {"type": "Feature", "id": "KH-92//5", "properties": {"khasra_no": "KH-92//5"}, "geometry": {"type": "Polygon", "coordinates": [[[76.8430, 28.7586], [76.8460, 28.7586], [76.8460, 28.7598], [76.8430, 28.7598], [76.8430, 28.7586]]]}},
    {"type": "Feature", "id": "KH-95//18", "properties": {"khasra_no": "KH-95//18"}, "geometry": {"type": "Polygon", "coordinates": [[[76.8460, 28.7586], [76.8490, 28.7586], [76.8490, 28.7598], [76.8460, 28.7598], [76.8460, 28.7586]]]}},
    {"type": "Feature", "id": "KH-95//19", "properties": {"khasra_no": "KH-95//19"}, "geometry": {"type": "Polygon", "coordinates": [[[76.8490, 28.7586], [76.8520, 28.7586], [76.8520, 28.7598], [76.8490, 28.7598], [76.8490, 28.7586]]]}},
    {"type": "Feature", "id": "KH-98//7", "properties": {"khasra_no": "KH-98//7"}, "geometry": {"type": "Polygon", "coordinates": [[[76.8520, 28.7586], [76.8550, 28.7586], [76.8550, 28.7598], [76.8520, 28.7598], [76.8520, 28.7586]]]}},
    {"type": "Feature", "id": "KH-98//8", "properties": {"khasra_no": "KH-98//8"}, "geometry": {"type": "Polygon", "coordinates": [[[76.8550, 28.7586], [76.8580, 28.7586], [76.8580, 28.7598], [76.8550, 28.7598], [76.8550, 28.7586]]]}},

    {"type": "Feature", "id": "KH-101//1", "properties": {"khasra_no": "KH-101//1"}, "geometry": {"type": "Polygon", "coordinates": [[[76.8400, 28.7574], [76.8430, 28.7574], [76.8430, 28.7586], [76.8400, 28.7586], [76.8400, 28.7574]]]}},
    {"type": "Feature", "id": "KH-101//2", "properties": {"khasra_no": "KH-101//2"}, "geometry": {"type": "Polygon", "coordinates": [[[76.8430, 28.7574], [76.8460, 28.7574], [76.8460, 28.7586], [76.8430, 28.7586], [76.8430, 28.7574]]]}},
    {"type": "Feature", "id": "KH-104//2", "properties": {"khasra_no": "KH-104//2"}, "geometry": {"type": "Polygon", "coordinates": [[[76.8460, 28.7574], [76.8490, 28.7574], [76.8490, 28.7586], [76.8460, 28.7586], [76.8460, 28.7574]]]}},
    {"type": "Feature", "id": "KH-104//3", "properties": {"khasra_no": "KH-104//3"}, "geometry": {"type": "Polygon", "coordinates": [[[76.8490, 28.7574], [76.8520, 28.7574], [76.8520, 28.7586], [76.8490, 28.7586], [76.8490, 28.7574]]]}},
    {"type": "Feature", "id": "KH-108//14", "properties": {"khasra_no": "KH-108//14"}, "geometry": {"type": "Polygon", "coordinates": [[[76.8520, 28.7574], [76.8550, 28.7574], [76.8550, 28.7586], [76.8520, 28.7586], [76.8520, 28.7574]]]}},
    {"type": "Feature", "id": "KH-108//15", "properties": {"khasra_no": "KH-108//15"}, "geometry": {"type": "Polygon", "coordinates": [[[76.8550, 28.7574], [76.8580, 28.7574], [76.8580, 28.7586], [76.8550, 28.7586], [76.8550, 28.7574]]]}},

    {"type": "Feature", "id": "KH-110//9", "properties": {"khasra_no": "KH-110//9"}, "geometry": {"type": "Polygon", "coordinates": [[[76.8400, 28.7562], [76.8430, 28.7562], [76.8430, 28.7574], [76.8400, 28.7574], [76.8400, 28.7562]]]}},
    {"type": "Feature", "id": "KH-110//10", "properties": {"khasra_no": "KH-110//10"}, "geometry": {"type": "Polygon", "coordinates": [[[76.8430, 28.7562], [76.8460, 28.7562], [76.8460, 28.7574], [76.8430, 28.7574], [76.8430, 28.7562]]]}},
    {"type": "Feature", "id": "KH-112//7", "properties": {"khasra_no": "KH-112//7"}, "geometry": {"type": "Polygon", "coordinates": [[[76.8460, 28.7562], [76.8490, 28.7562], [76.8490, 28.7574], [76.8460, 28.7574], [76.8460, 28.7562]]]}},
    {"type": "Feature", "id": "KH-112//8", "properties": {"khasra_no": "KH-112//8"}, "geometry": {"type": "Polygon", "coordinates": [[[76.8490, 28.7562], [76.8520, 28.7562], [76.8520, 28.7574], [76.8490, 28.7574], [76.8490, 28.7562]]]}},
    {"type": "Feature", "id": "KH-116//21", "properties": {"khasra_no": "KH-116//21"}, "geometry": {"type": "Polygon", "coordinates": [[[76.8520, 28.7562], [76.8550, 28.7562], [76.8550, 28.7574], [76.8520, 28.7574], [76.8520, 28.7562]]]}},
    {"type": "Feature", "id": "KH-116//22", "properties": {"khasra_no": "KH-116//22"}, "geometry": {"type": "Polygon", "coordinates": [[[76.8550, 28.7562], [76.8580, 28.7562], [76.8580, 28.7574], [76.8550, 28.7574], [76.8550, 28.7562]]]}}
  ]
}